start=new Date('2023-04-13T00:00:00.000Z').valueOf();
sats=[{"SITE":"AFETR","SEMIMAJOR_AXIS":"6917.907","CENTER_NAME":"EARTH","PERIOD":"95.438","REF_FRAME":"TEME","RA_OF_ASC_NODE":"192.4591","GP_ID":"229982279","COUNTRY_CODE":"US","EPHEMERIS_TYPE":"0","PERIAPSIS":"538.532","FILE":"3886349","MEAN_MOTION":"15.08831260","RCS_SIZE":"LARGE","CLASSIFICATION_TYPE":"U","OBJECT_ID":"2022-097X","OBJECT_NAME":"STARLINK-4490","NORAD_CAT_ID":"53409","DECAY_DATE":null,"EPOCH":"2023-04-12T13:08:10.219200","REV_AT_EPOCH":"3844","ECCENTRICITY":"0.00017930","MEAN_MOTION_DDOT":"0.0000000000000","TLE_LINE1":"1 53409U 22097X   23102.54734050 -.00004605  00000-0 -27145-3 0  9996","LAUNCH_DATE":"2022-08-10","ARG_OF_PERICENTER":"117.1333","TIME_SYSTEM":"UTC","APOAPSIS":"541.012","MEAN_MOTION_DOT":"-0.00004605","INCLINATION":"53.2182","MEAN_ANOMALY":"242.9842","TLE_LINE2":"2 53409  53.2182 192.4591 0001793 117.1333 242.9842 15.08831260 38448","BSTAR":"-0.00027145000000","OBJECT_TYPE":"PAYLOAD","MEAN_ELEMENT_THEORY":"SGP4","ELEMENT_SET_NO":"999"},{"EPHEMERIS_TYPE":"0","COUNTRY_CODE":"US","PERIAPSIS":"538.792","FILE":"3886495","CENTER_NAME":"EARTH","PERIOD":"95.437","RA_OF_ASC_NODE":"201.3581","REF_FRAME":"TEME","SITE":"AFETR","SEMIMAJOR_AXIS":"6917.854","GP_ID":"229989580","OBJECT_NAME":"STARLINK-4492","OBJECT_ID":"2022-097Y","NORAD_CAT_ID":"53410","MEAN_MOTION":"15.08848572","CLASSIFICATION_TYPE":"U","RCS_SIZE":"LARGE","LAUNCH_DATE":"2022-08-10","ARG_OF_PERICENTER":"85.7969","TLE_LINE1":"1 53410U 22097Y   23102.74878771  .00000502  00000-0  49644-4 0  9998","APOAPSIS":"540.646","MEAN_MOTION_DOT":"0.00000502","TIME_SYSTEM":"UTC","EPOCH":"2023-04-12T17:58:15.258144","REV_AT_EPOCH":"3784","DECAY_DATE":null,"MEAN_MOTION_DDOT":"0.0000000000000","ECCENTRICITY":"0.00013400","TLE_LINE2":"2 53410  53.2162 201.3581 0001340  85.7969 274.3177 15.08848572 37847","BSTAR":"0.00004964400000","ELEMENT_SET_NO":"999","OBJECT_TYPE":"PAYLOAD","MEAN_ELEMENT_THEORY":"SGP4","INCLINATION":"53.2162","MEAN_ANOMALY":"274.3177"},{"MEAN_ELEMENT_THEORY":"SGP4","OBJECT_TYPE":"PAYLOAD","ELEMENT_SET_NO":"999","BSTAR":"0.00010889000000","TLE_LINE2":"2 53411  53.2179 202.2203 0001315  95.9475 264.1667 15.08846089 37813","MEAN_ANOMALY":"264.1667","INCLINATION":"53.2179","TIME_SYSTEM":"UTC","APOAPSIS":"540.636","MEAN_MOTION_DOT":"0.00001446","TLE_LINE1":"1 53411U 22097Z   23102.55743184  .00001446  00000-0  10889-3 0  9993","ARG_OF_PERICENTER":"95.9475","LAUNCH_DATE":"2022-08-10","ECCENTRICITY":"0.00013150","MEAN_MOTION_DDOT":"0.0000000000000","DECAY_DATE":null,"REV_AT_EPOCH":"3781","EPOCH":"2023-04-12T13:22:42.110976","NORAD_CAT_ID":"53411","OBJECT_ID":"2022-097Z","OBJECT_NAME":"STARLINK-4497","CLASSIFICATION_TYPE":"U","RCS_SIZE":"LARGE","MEAN_MOTION":"15.08846089","PERIAPSIS":"538.817","FILE":"3886323","COUNTRY_CODE":"US","EPHEMERIS_TYPE":"0","GP_ID":"229958437","SEMIMAJOR_AXIS":"6917.862","SITE":"AFETR","REF_FRAME":"TEME","PERIOD":"95.437","RA_OF_ASC_NODE":"202.2203","CENTER_NAME":"EARTH"},{"MEAN_MOTION":"15.08851599","CLASSIFICATION_TYPE":"U","RCS_SIZE":"LARGE","OBJECT_ID":"2022-097AA","OBJECT_NAME":"STARLINK-4496","NORAD_CAT_ID":"53412","SEMIMAJOR_AXIS":"6917.845","SITE":"AFETR","PERIOD":"95.437","REF_FRAME":"TEME","RA_OF_ASC_NODE":"201.4080","CENTER_NAME":"EARTH","GP_ID":"229989596","COUNTRY_CODE":"US","EPHEMERIS_TYPE":"0","PERIAPSIS":"538.815","FILE":"3886496","INCLINATION":"53.2163","MEAN_ANOMALY":"285.9417","BSTAR":"0.00029597000000","TLE_LINE2":"2 53412  53.2163 201.4080 0001293  74.1718 285.9417 15.08851599 37844","MEAN_ELEMENT_THEORY":"SGP4","OBJECT_TYPE":"PAYLOAD","ELEMENT_SET_NO":"999","DECAY_DATE":null,"REV_AT_EPOCH":"3784","EPOCH":"2023-04-12T17:42:21.716640","ECCENTRICITY":"0.00012930","MEAN_MOTION_DDOT":"0.0000000000000","TLE_LINE1":"1 53412U 22097AA  23102.73775135  .00004427  00000-0  29597-3 0  9993","ARG_OF_PERICENTER":"74.1718","LAUNCH_DATE":"2022-08-10","TIME_SYSTEM":"UTC","APOAPSIS":"540.604","MEAN_MOTION_DOT":"0.00004427"},{"TLE_LINE2":"2 53413  53.2150 202.2663 0001343  90.4586 269.6560 15.08841323 37816","BSTAR":"0.00022697000000","OBJECT_TYPE":"PAYLOAD","MEAN_ELEMENT_THEORY":"SGP4","ELEMENT_SET_NO":"999","INCLINATION":"53.2150","MEAN_ANOMALY":"269.6560","TLE_LINE1":"1 53413U 22097AB  23102.54639528  .00003326  00000-0  22697-3 0  9999","LAUNCH_DATE":"2022-08-10","ARG_OF_PERICENTER":"90.4586","TIME_SYSTEM":"UTC","MEAN_MOTION_DOT":"0.00003326","APOAPSIS":"540.670","DECAY_DATE":null,"EPOCH":"2023-04-12T13:06:48.552192","REV_AT_EPOCH":"3781","MEAN_MOTION_DDOT":"0.0000000000000","ECCENTRICITY":"0.00013430","OBJECT_ID":"2022-097AB","OBJECT_NAME":"STARLINK-4500","NORAD_CAT_ID":"53413","MEAN_MOTION":"15.08841323","CLASSIFICATION_TYPE":"U","RCS_SIZE":"LARGE","COUNTRY_CODE":"US","EPHEMERIS_TYPE":"0","PERIAPSIS":"538.812","FILE":"3886324","SITE":"AFETR","SEMIMAJOR_AXIS":"6917.876","CENTER_NAME":"EARTH","PERIOD":"95.437","RA_OF_ASC_NODE":"202.2663","REF_FRAME":"TEME","GP_ID":"229958722"},{"MEAN_MOTION_DDOT":"0.0000000000000","ECCENTRICITY":"0.00038290","EPOCH":"2023-04-12T12:50:54.481056","REV_AT_EPOCH":"3781","DECAY_DATE":null,"APOAPSIS":"542.459","MEAN_MOTION_DOT":"-0.00004017","TIME_SYSTEM":"UTC","LAUNCH_DATE":"2022-08-10","ARG_OF_PERICENTER":"8.0627","TLE_LINE1":"1 53414U 22097AC  23102.53535279 -.00004017  00000-0 -23450-3 0  9995","MEAN_ANOMALY":"352.0426","INCLINATION":"53.2195","ELEMENT_SET_NO":"999","OBJECT_TYPE":"PAYLOAD","MEAN_ELEMENT_THEORY":"SGP4","TLE_LINE2":"2 53414  53.2195 202.3280 0003829   8.0627 352.0426 15.08818661 37811","BSTAR":"-0.00023450000000","GP_ID":"229958476","CENTER_NAME":"EARTH","PERIOD":"95.439","REF_FRAME":"TEME","RA_OF_ASC_NODE":"202.3280","SITE":"AFETR","SEMIMAJOR_AXIS":"6917.946","PERIAPSIS":"537.162","FILE":"3886332","EPHEMERIS_TYPE":"0","COUNTRY_CODE":"US","RCS_SIZE":"LARGE","CLASSIFICATION_TYPE":"U","MEAN_MOTION":"15.08818661","NORAD_CAT_ID":"53414","OBJECT_NAME":"STARLINK-4304","OBJECT_ID":"2022-097AC"},{"ELEMENT_SET_NO":"999","MEAN_ELEMENT_THEORY":"SGP4","OBJECT_TYPE":"PAYLOAD","BSTAR":"0.00000570910000","TLE_LINE2":"2 53415  53.2164 202.3343 0001044  96.2237 263.8874 15.08833640 37811","MEAN_ANOMALY":"263.8874","INCLINATION":"53.2164","APOAPSIS":"540.487","MEAN_MOTION_DOT":"-0.00000197","TIME_SYSTEM":"UTC","ARG_OF_PERICENTER":"96.2237","LAUNCH_DATE":"2022-08-10","TLE_LINE1":"1 53415U 22097AD  23102.53167867 -.00000197  00000-0  57091-5 0  9994","MEAN_MOTION_DDOT":"0.0000000000000","ECCENTRICITY":"0.00010440","REV_AT_EPOCH":"3781","EPOCH":"2023-04-12T12:45:37.037088","DECAY_DATE":null,"NORAD_CAT_ID":"53415","OBJECT_NAME":"STARLINK-4479","OBJECT_ID":"2022-097AD","RCS_SIZE":"LARGE","CLASSIFICATION_TYPE":"U","MEAN_MOTION":"15.08833640","FILE":"3886324","PERIAPSIS":"539.043","EPHEMERIS_TYPE":"0","COUNTRY_CODE":"US","GP_ID":"229958724","REF_FRAME":"TEME","PERIOD":"95.438","RA_OF_ASC_NODE":"202.3343","CENTER_NAME":"EARTH","SEMIMAJOR_AXIS":"6917.900","SITE":"AFETR"},{"EPOCH":"2023-04-12T12:24:24.778944","REV_AT_EPOCH":"3781","DECAY_DATE":null,"MEAN_MOTION_DDOT":"0.0000000000000","ECCENTRICITY":"0.00015580","LAUNCH_DATE":"2022-08-10","ARG_OF_PERICENTER":"97.7999","TLE_LINE1":"1 53416U 22097AE  23102.51695346 -.00000939  00000-0 -40922-4 0  9990","APOAPSIS":"540.824","MEAN_MOTION_DOT":"-0.00000939","TIME_SYSTEM":"UTC","INCLINATION":"53.2198","MEAN_ANOMALY":"262.3171","TLE_LINE2":"2 53416  53.2198 202.3523 0001558  97.7999 262.3171 15.08839777 37811","BSTAR":"-0.00004092200000","ELEMENT_SET_NO":"999","OBJECT_TYPE":"PAYLOAD","MEAN_ELEMENT_THEORY":"SGP4","CENTER_NAME":"EARTH","PERIOD":"95.438","REF_FRAME":"TEME","RA_OF_ASC_NODE":"202.3523","SITE":"AFETR","SEMIMAJOR_AXIS":"6917.881","GP_ID":"229958728","EPHEMERIS_TYPE":"0","COUNTRY_CODE":"US","PERIAPSIS":"538.668","FILE":"3886324","MEAN_MOTION":"15.08839777","CLASSIFICATION_TYPE":"U","RCS_SIZE":"LARGE","OBJECT_NAME":"STARLINK-4480","OBJECT_ID":"2022-097AE","NORAD_CAT_ID":"53416"},{"TLE_LINE1":"1 53417U 22097AF  23102.46175545 -.00001367  00000-0 -67822-4 0  9993","ARG_OF_PERICENTER":"90.8300","LAUNCH_DATE":"2022-08-10","TIME_SYSTEM":"UTC","APOAPSIS":"540.713","MEAN_MOTION_DOT":"-0.00001367","DECAY_DATE":null,"REV_AT_EPOCH":"3780","EPOCH":"2023-04-12T11:04:55.670880","ECCENTRICITY":"0.00013800","MEAN_MOTION_DDOT":"0.0000000000000","BSTAR":"-0.00006782200000","TLE_LINE2":"2 53417  53.2206 202.6497 0001380  90.8300 269.2850 15.08835778 37804","MEAN_ELEMENT_THEORY":"SGP4","OBJECT_TYPE":"PAYLOAD","ELEMENT_SET_NO":"999","INCLINATION":"53.2206","MEAN_ANOMALY":"269.2850","COUNTRY_CODE":"US","EPHEMERIS_TYPE":"0","FILE":"3886324","PERIAPSIS":"538.804","SEMIMAJOR_AXIS":"6917.893","SITE":"AFETR","RA_OF_ASC_NODE":"202.6497","PERIOD":"95.438","REF_FRAME":"TEME","CENTER_NAME":"EARTH","GP_ID":"229958721","OBJECT_ID":"2022-097AF","OBJECT_NAME":"STARLINK-4484","NORAD_CAT_ID":"53417","MEAN_MOTION":"15.08835778","RCS_SIZE":"LARGE","CLASSIFICATION_TYPE":"U"},{"EPHEMERIS_TYPE":"0","COUNTRY_CODE":"US","FILE":"3886496","PERIAPSIS":"538.669","RA_OF_ASC_NODE":"191.4998","PERIOD":"95.437","REF_FRAME":"TEME","CENTER_NAME":"EARTH","SEMIMAJOR_AXIS":"6917.841","SITE":"AFETR","GP_ID":"229989280","OBJECT_NAME":"STARLINK-4481","OBJECT_ID":"2022-097AG","NORAD_CAT_ID":"53418","MEAN_MOTION":"15.08853029","RCS_SIZE":"LARGE","CLASSIFICATION_TYPE":"U","ARG_OF_PERICENTER":"92.7062","LAUNCH_DATE":"2022-08-10","TLE_LINE1":"1 53418U 22097AG  23102.62085992 -.00002423  00000-0 -13415-3 0  9990","MEAN_MOTION_DOT":"-0.00002423","APOAPSIS":"540.743","TIME_SYSTEM":"UTC","REV_AT_EPOCH":"3797","EPOCH":"2023-04-12T14:54:02.297088","DECAY_DATE":null,"MEAN_MOTION_DDOT":"0.0000000000000","ECCENTRICITY":"0.00014990","BSTAR":"-0.00013415000000","TLE_LINE2":"2 53418  53.2180 191.4998 0001499  92.7062 267.4101 15.08853029 37970","ELEMENT_SET_NO":"999","MEAN_ELEMENT_THEORY":"SGP4","OBJECT_TYPE":"PAYLOAD","INCLINATION":"53.2180","MEAN_ANOMALY":"267.4101"}];
